PEASSS                  
1 42015U 17008BV  23117.14674532  .00043516  00000+0  84566-3 0  9994
2 42015  97.2129 180.6083 0004707 183.2395 176.8826 15.47484737344952
AL-FARABI 1             
1 42016U 17008BW  23116.42123809  .00107314  00000+0  11917-2 0  9997
2 42016  97.2179 185.9505 0004505 190.6108 169.5056 15.62556415345309
NAYIF-1 (EO-88)         
1 42017U 17008BX  23117.13924693  .00116515  00000+0  12351-2 0  9993
2 42017  97.2156 186.8026 0004908 195.8464 164.2642 15.63718711345451
UCLSAT                  
1 42765U 17036A   23116.90046029  .00043983  00000+0  88932-3 0  9993
2 42765  97.1486 156.3695 0004666 259.2285 100.8440 15.46328254325941
AALTO-1                 
1 42775U 17036L   23116.81928693  .00016881  00000+0  51923-3 0  9997
2 42775  97.1580 148.4008 0008138 291.6284  68.4092 15.33705960324641
URSA MAIOR              
1 42776U 17036M   23116.68034797  .00017854  00000+0  52226-3 0  9994
2 42776  97.1594 149.4624 0007692 286.4618  73.5780 15.35286607324688
COMPASS 2               
1 42777U 17036N   23116.86519108  .00170393  00000+0  16327-2 0  9998
2 42777  97.1499 161.7908 0006219 216.5115 143.5722 15.66097924325440
DIAMOND RED             
1 42783U 17036U   23116.88565143  .00022344  00000+0  59965-3 0  9995
2 42783  97.1572 152.7696 0005920 289.3512  70.7093 15.37942899324900
PEGASUS                 
1 42784U 17036V   23116.86261955  .00034940  00000+0  78417-3 0  9996
2 42784  97.1537 155.0388 0005258 271.2847  88.7799 15.43292126325058
DIAMOND GREEN           
1 42785U 17036W   23116.85053470  .00025128  00000+0  65799-3 0  9994
2 42785  97.1566 152.8790 0005569 288.1599  71.9040 15.38681152324977
DIAMOND BLUE            
1 42786U 17036X   23116.66848327  .00021494  00000+0  56906-3 0  9999
2 42786  97.1571 152.6662 0005988 289.6671  70.3928 15.38369282324944
SUCHAI                  
1 42788U 17036Z   23116.06894145  .00059092  00000+0  10366-2 0  9998
2 42788  97.1513 157.3818 0004450 254.7456 105.3305 15.50350637325200
SKCUBE                  
1 42789U 17036AA  23116.89593374  .00044479  00000+0  88751-3 0  9997
2 42789  97.1524 156.9573 0004642 256.9111 103.1621 15.46712588325176
VZLUSAT-1               
1 42790U 17036AB  23116.87838470  .00227746  00000+0  16700-2 0  9990
2 42790  97.1447 163.8278 0005986 217.1594 142.9257 15.72459509325601
ROBUSTA 1B              
1 42792U 17036AD  23116.56954825  .00048328  00000+0  88311-3 0  9996
2 42792  97.1504 157.6735 0004240 251.3693 108.7098 15.49235729325207
