[{"OBJECT_NAME":"PEASSS","OBJECT_ID":"2017-008BV","EPOCH":"2023-04-27T03:31:18.795648","MEAN_MOTION":15.47484737,"ECCENTRICITY":0.0004707,"INCLINATION":97.2129,"RA_OF_ASC_NODE":180.6083,"ARG_OF_PERICENTER":183.2395,"MEAN_ANOMALY":176.8826,"EPHEMERIS_TYPE":0,"CLASSIFICATION_TYPE":"U","NORAD_CAT_ID":42015,"ELEMENT_SET_NO":999,"REV_AT_EPOCH":34495,"BSTAR":0.00084566,"MEAN_MOTION_DOT":0.00043516,"MEAN_MOTION_DDOT":0},{"OBJECT_NAME":"AL-FARABI 1","OBJECT_ID":"2017-008BW","EPOCH":"2023-04-26T10:06:34.970976","MEAN_MOTION":15.62556415,"ECCENTRICITY":0.0004505,"INCLINATION":97.2179,"RA_OF_ASC_NODE":185.9505,"ARG_OF_PERICENTER":190.6108,"MEAN_ANOMALY":169.5056,"EPHEMERIS_TYPE":0,"CLASSIFICATION_TYPE":"U","NORAD_CAT_ID":42016,"ELEMENT_SET_NO":999,"REV_AT_EPOCH":34530,"BSTAR":0.0011917,"MEAN_MOTION_DOT":0.00107314,"MEAN_MOTION_DDOT":0},{"OBJECT_NAME":"NAYIF-1 (EO-88)","OBJECT_ID":"2017-008BX","EPOCH":"2023-04-27T03:20:30.934752","MEAN_MOTION":15.63718711,"ECCENTRICITY":0.0004908,"INCLINATION":97.2156,"RA_OF_ASC_NODE":186.8026,"ARG_OF_PERICENTER":195.8464,"MEAN_ANOMALY":164.2642,"EPHEMERIS_TYPE":0,"CLASSIFICATION_TYPE":"U","NORAD_CAT_ID":42017,"ELEMENT_SET_NO":999,"REV_AT_EPOCH":34545,"BSTAR":0.0012351,"MEAN_MOTION_DOT":0.00116515,"MEAN_MOTION_DDOT":0},{"OBJECT_NAME":"UCLSAT","OBJECT_ID":"2017-036A","EPOCH":"2023-04-26T21:36:39.769056","MEAN_MOTION":15.46328254,"ECCENTRICITY":0.0004666,"INCLINATION":97.1486,"RA_OF_ASC_NODE":156.3695,"ARG_OF_PERICENTER":259.2285,"MEAN_ANOMALY":100.844,"EPHEMERIS_TYPE":0,"CLASSIFICATION_TYPE":"U","NORAD_CAT_ID":42765,"ELEMENT_SET_NO":999,"REV_AT_EPOCH":32594,"BSTAR":0.00088932,"MEAN_MOTION_DOT":0.00043983,"MEAN_MOTION_DDOT":0},{"OBJECT_NAME":"AALTO-1","OBJECT_ID":"2017-036L","EPOCH":"2023-04-26T19:39:46.390752","MEAN_MOTION":15.3370596,"ECCENTRICITY":0.0008138,"INCLINATION":97.158,"RA_OF_ASC_NODE":148.4008,"ARG_OF_PERICENTER":291.6284,"MEAN_ANOMALY":68.4092,"EPHEMERIS_TYPE":0,"CLASSIFICATION_TYPE":"U","NORAD_CAT_ID":42775,"ELEMENT_SET_NO":999,"REV_AT_EPOCH":32464,"BSTAR":0.00051923,"MEAN_MOTION_DOT":0.00016881,"MEAN_MOTION_DDOT":0},{"OBJECT_NAME":"URSA MAIOR","OBJECT_ID":"2017-036M","EPOCH":"2023-04-26T16:19:42.064608","MEAN_MOTION":15.35286607,"ECCENTRICITY":0.0007692,"INCLINATION":97.1594,"RA_OF_ASC_NODE":149.4624,"ARG_OF_PERICENTER":286.4618,"MEAN_ANOMALY":73.578,"EPHEMERIS_TYPE":0,"CLASSIFICATION_TYPE":"U","NORAD_CAT_ID":42776,"ELEMENT_SET_NO":999,"REV_AT_EPOCH":32468,"BSTAR":0.00052226,"MEAN_MOTION_DOT":0.00017854,"MEAN_MOTION_DDOT":0},{"OBJECT_NAME":"COMPASS 2","OBJECT_ID":"2017-036N","EPOCH":"2023-04-26T20:45:52.509312","MEAN_MOTION":15.66097924,"ECCENTRICITY":0.0006219,"INCLINATION":97.1499,"RA_OF_ASC_NODE":161.7908,"ARG_OF_PERICENTER":216.5115,"MEAN_ANOMALY":143.5722,"EPHEMERIS_TYPE":0,"CLASSIFICATION_TYPE":"U","NORAD_CAT_ID":42777,"ELEMENT_SET_NO":999,"REV_AT_EPOCH":32544,"BSTAR":0.0016327,"MEAN_MOTION_DOT":0.00170393,"MEAN_MOTION_DDOT":0},{"OBJECT_NAME":"DIAMOND RED","OBJECT_ID":"2017-036U","EPOCH":"2023-04-26T21:15:20.283552","MEAN_MOTION":15.37942899,"ECCENTRICITY":0.000592,"INCLINATION":97.1572,"RA_OF_ASC_NODE":152.7696,"ARG_OF_PERICENTER":289.3512,"MEAN_ANOMALY":70.7093,"EPHEMERIS_TYPE":0,"CLASSIFICATION_TYPE":"U","NORAD_CAT_ID":42783,"ELEMENT_SET_NO":999,"REV_AT_EPOCH":32490,"BSTAR":0.00059965,"MEAN_MOTION_DOT":0.00022344,"MEAN_MOTION_DDOT":0},{"OBJECT_NAME":"PEGASUS","OBJECT_ID":"2017-036V","EPOCH":"2023-04-26T20:42:10.329120","MEAN_MOTION":15.43292126,"ECCENTRICITY":0.0005258,"INCLINATION":97.1537,"RA_OF_ASC_NODE":155.0388,"ARG_OF_PERICENTER":271.2847,"MEAN_ANOMALY":88.7799,"EPHEMERIS_TYPE":0,"CLASSIFICATION_TYPE":"U","NORAD_CAT_ID":42784,"ELEMENT_SET_NO":999,"REV_AT_EPOCH":32505,"BSTAR":0.00078417,"MEAN_MOTION_DOT":0.0003494,"MEAN_MOTION_DDOT":0},{"OBJECT_NAME":"DIAMOND GREEN","OBJECT_ID":"2017-036W","EPOCH":"2023-04-26T20:24:46.198080","MEAN_MOTION":15.38681152,"ECCENTRICITY":0.0005569,"INCLINATION":97.1566,"RA_OF_ASC_NODE":152.879,"ARG_OF_PERICENTER":288.1599,"MEAN_ANOMALY":71.904,"EPHEMERIS_TYPE":0,"CLASSIFICATION_TYPE":"U","NORAD_CAT_ID":42785,"ELEMENT_SET_NO":999,"REV_AT_EPOCH":32497,"BSTAR":0.00065799,"MEAN_MOTION_DOT":0.00025128,"MEAN_MOTION_DDOT":0},{"OBJECT_NAME":"DIAMOND BLUE","OBJECT_ID":"2017-036X","EPOCH":"2023-04-26T16:02:36.954528","MEAN_MOTION":15.38369282,"ECCENTRICITY":0.0005988,"INCLINATION":97.1571,"RA_OF_ASC_NODE":152.6662,"ARG_OF_PERICENTER":289.6671,"MEAN_ANOMALY":70.3928,"EPHEMERIS_TYPE":0,"CLASSIFICATION_TYPE":"U","NORAD_CAT_ID":42786,"ELEMENT_SET_NO":999,"REV_AT_EPOCH":32486,"BSTAR":0.00056906,"MEAN_MOTION_DOT":0.00021494,"MEAN_MOTION_DDOT":0},{"OBJECT_NAME":"SUCHAI","OBJECT_ID":"2017-036Z","EPOCH":"2023-04-26T01:39:16.541280","MEAN_MOTION":15.50350637,"ECCENTRICITY":0.000445,"INCLINATION":97.1513,"RA_OF_ASC_NODE":157.3818,"ARG_OF_PERICENTER":254.7456,"MEAN_ANOMALY":105.3305,"EPHEMERIS_TYPE":0,"CLASSIFICATION_TYPE":"U","NORAD_CAT_ID":42788,"ELEMENT_SET_NO":999,"REV_AT_EPOCH":32520,"BSTAR":0.0010366,"MEAN_MOTION_DOT":0.00059092,"MEAN_MOTION_DDOT":0},{"OBJECT_NAME":"SKCUBE","OBJECT_ID":"2017-036AA","EPOCH":"2023-04-26T21:30:08.675136","MEAN_MOTION":15.46712588,"ECCENTRICITY":0.0004642,"INCLINATION":97.1524,"RA_OF_ASC_NODE":156.9573,"ARG_OF_PERICENTER":256.9111,"MEAN_ANOMALY":103.1621,"EPHEMERIS_TYPE":0,"CLASSIFICATION_TYPE":"U","NORAD_CAT_ID":42789,"ELEMENT_SET_NO":999,"REV_AT_EPOCH":32517,"BSTAR":0.00088751,"MEAN_MOTION_DOT":0.00044479,"MEAN_MOTION_DDOT":0},{"OBJECT_NAME":"VZLUSAT-1","OBJECT_ID":"2017-036AB","EPOCH":"2023-04-26T21:04:52.438080","MEAN_MOTION":15.72459509,"ECCENTRICITY":0.0005986,"INCLINATION":97.1447,"RA_OF_ASC_NODE":163.8278,"ARG_OF_PERICENTER":217.1594,"MEAN_ANOMALY":142.9257,"EPHEMERIS_TYPE":0,"CLASSIFICATION_TYPE":"U","NORAD_CAT_ID":42790,"ELEMENT_SET_NO":999,"REV_AT_EPOCH":32560,"BSTAR":0.00167,"MEAN_MOTION_DOT":0.00227746,"MEAN_MOTION_DDOT":0},{"OBJECT_NAME":"ROBUSTA 1B","OBJECT_ID":"2017-036AD","EPOCH":"2023-04-26T13:40:08.968800","MEAN_MOTION":15.49235729,"ECCENTRICITY":0.000424,"INCLINATION":97.1504,"RA_OF_ASC_NODE":157.6735,"ARG_OF_PERICENTER":251.3693,"MEAN_ANOMALY":108.7098,"EPHEMERIS_TYPE":0,"CLASSIFICATION_TYPE":"U","NORAD_CAT_ID":42792,"ELEMENT_SET_NO":999,"REV_AT_EPOCH":32520,"BSTAR":0.00088311,"MEAN_MOTION_DOT":0.00048328,"MEAN_MOTION_DDOT":0}]
